TIANMU-1 07             
1 57399U 23101A   26065.57454230  .00008352  00000+0  29795-3 0  9991
2 57399  97.2728 118.5929 0004609 142.4105 217.7458 15.29118809145964
FLOCK 4G-6              
1 62660U 25009BD  26068.71061311  .00012261  00000+0  45910-3 0  9991
2 62660  97.3980 150.7943 0002380 348.2637  11.8546 15.27432125121307
